UNKNOWN                 
1 81439U          26082.32474054  .00000549  00000+0  16767-2 0  9998
2 81439  67.1607 307.3107 0596225 141.0661 223.4901 12.62674757274598
UNKNOWN                 
1 81449U          26081.57642867  .00189190  00000+0  79901-2 0  9993
2 81449  66.7889  56.5866 0019587  10.2451 349.9090 15.22093368648620
UNKNOWN                 
1 81478U          26079.72741651  .00003887  00000+0  13816-2 0  9991
2 81478  98.9516 359.2059 0146233  73.6444 319.4425 14.29132511636932
UNKNOWN                 
1 81488U          26082.45049344  .00000245  00000+0  40935-3 0  9994
2 81488  99.9906 321.5696 0045077 109.4048  69.3748 13.56561173610286
UNKNOWN                 
1 81497U          26080.98218993  .00003997  00000+0  35699-2 0  9995
2 81497 100.3003 350.1656 0028128 117.1905 259.8303 13.84959029230037
UNKNOWN                 
1 81499U          26081.85230302  .00003513  00000+0  95699-3 0  9993
2 81499  74.0507  33.9880 0001988 202.7624 157.3448 14.47785336496904
UNKNOWN                 
1 81535U          26081.94779465  .00001194  00000+0  50327-3 0  9994
2 81535  98.1881 160.9362 0234270 218.2848 140.1493 14.13679229401558
UNKNOWN                 
1 81536U          26081.85945259  .00000568  00000+0  37265-2 0  9990
2 81536 101.9669 309.1440 0023042  79.2800 301.1766 12.55998688564386
UNKNOWN                 
1 81537U          26081.20284036  .00000150  00000+0  11438-3 0  9991
2 81537  71.0372 263.4610 0076997   0.9507 359.1743 14.07169215634457
UNKNOWN                 
1 81552U          26079.23176545  .00000631  00000+0  14281-2 0  9995
2 81552  99.0705 357.5162 0256953 143.8301 218.0502 13.18343872592095
UNKNOWN                 
1 81599U          26080.72508987  .00000265  00000+0  57618-3 0  9996
2 81599  67.2942  66.8229 0248477  11.2794 171.4760 13.31548769598255
UNKNOWN                 
1 81605U          26079.88012628 -.00000968  00000+0 -35638-2 0  9990
2 81605  56.4330 295.5391 0144099 273.9657  84.4808 12.81398729198788
