CCSDS_OMM_VERS = 2.0
CREATION_DATE  = 
ORIGINATOR     = 

OBJECT_NAME    = UNKNOWN
OBJECT_ID      = 
CENTER_NAME    = EARTH
REF_FRAME      = TEME
TIME_SYSTEM    = UTC
MEAN_ELEMENT_THEORY = SGP/SGP4

EPOCH          = 2026-03-23T07:47:37.582656
MEAN_MOTION    = 12.62674757
ECCENTRICITY   = .0596225
INCLINATION    = 67.1607
RA_OF_ASC_NODE = 307.3107
ARG_OF_PERICENTER = 141.0661
MEAN_ANOMALY   = 223.4901

EPHEMERIS_TYPE = 0
CLASSIFICATION_TYPE = U
NORAD_CAT_ID   = 81439
ELEMENT_SET_NO = 999
REV_AT_EPOCH   = 27459
BSTAR          = .16767E-2
MEAN_MOTION_DOT = .549E-5
MEAN_MOTION_DDOT = 0

CCSDS_OMM_VERS = 2.0
CREATION_DATE  = 
ORIGINATOR     = 

OBJECT_NAME    = UNKNOWN
OBJECT_ID      = 
CENTER_NAME    = EARTH
REF_FRAME      = TEME
TIME_SYSTEM    = UTC
MEAN_ELEMENT_THEORY = SGP/SGP4

EPOCH          = 2026-03-22T13:50:03.437088
MEAN_MOTION    = 15.22093368
ECCENTRICITY   = .0019587
INCLINATION    = 66.7889
RA_OF_ASC_NODE = 56.5866
ARG_OF_PERICENTER = 10.2451
MEAN_ANOMALY   = 349.9090

EPHEMERIS_TYPE = 0
CLASSIFICATION_TYPE = U
NORAD_CAT_ID   = 81449
ELEMENT_SET_NO = 999
REV_AT_EPOCH   = 64862
BSTAR          = .79901E-2
MEAN_MOTION_DOT = .18919E-2
MEAN_MOTION_DDOT = 0

CCSDS_OMM_VERS = 2.0
CREATION_DATE  = 
ORIGINATOR     = 

OBJECT_NAME    = UNKNOWN
OBJECT_ID      = 
CENTER_NAME    = EARTH
REF_FRAME      = TEME
TIME_SYSTEM    = UTC
MEAN_ELEMENT_THEORY = SGP/SGP4

EPOCH          = 2026-03-20T17:27:28.786464
MEAN_MOTION    = 14.29132511
ECCENTRICITY   = .0146233
INCLINATION    = 98.9516
RA_OF_ASC_NODE = 359.2059
ARG_OF_PERICENTER = 73.6444
MEAN_ANOMALY   = 319.4425

EPHEMERIS_TYPE = 0
CLASSIFICATION_TYPE = U
NORAD_CAT_ID   = 81478
ELEMENT_SET_NO = 999
REV_AT_EPOCH   = 63693
BSTAR          = .13816E-2
MEAN_MOTION_DOT = .3887E-4
MEAN_MOTION_DDOT = 0

CCSDS_OMM_VERS = 2.0
CREATION_DATE  = 
ORIGINATOR     = 

OBJECT_NAME    = UNKNOWN
OBJECT_ID      = 
CENTER_NAME    = EARTH
REF_FRAME      = TEME
TIME_SYSTEM    = UTC
MEAN_ELEMENT_THEORY = SGP/SGP4

EPOCH          = 2026-03-23T10:48:42.633216
MEAN_MOTION    = 13.56561173
ECCENTRICITY   = .0045077
INCLINATION    = 99.9906
RA_OF_ASC_NODE = 321.5696
ARG_OF_PERICENTER = 109.4048
MEAN_ANOMALY   = 69.3748

EPHEMERIS_TYPE = 0
CLASSIFICATION_TYPE = U
NORAD_CAT_ID   = 81488
ELEMENT_SET_NO = 999
REV_AT_EPOCH   = 61028
BSTAR          = .40935E-3
MEAN_MOTION_DOT = .245E-5
MEAN_MOTION_DDOT = 0

CCSDS_OMM_VERS = 2.0
CREATION_DATE  = 
ORIGINATOR     = 

OBJECT_NAME    = UNKNOWN
OBJECT_ID      = 
CENTER_NAME    = EARTH
REF_FRAME      = TEME
TIME_SYSTEM    = UTC
MEAN_ELEMENT_THEORY = SGP/SGP4

EPOCH          = 2026-03-21T23:34:21.209952
MEAN_MOTION    = 13.84959029
ECCENTRICITY   = .0028128
INCLINATION    = 100.3003
RA_OF_ASC_NODE = 350.1656
ARG_OF_PERICENTER = 117.1905
MEAN_ANOMALY   = 259.8303

EPHEMERIS_TYPE = 0
CLASSIFICATION_TYPE = U
NORAD_CAT_ID   = 81497
ELEMENT_SET_NO = 999
REV_AT_EPOCH   = 23003
BSTAR          = .35699E-2
MEAN_MOTION_DOT = .3997E-4
MEAN_MOTION_DDOT = 0

CCSDS_OMM_VERS = 2.0
CREATION_DATE  = 
ORIGINATOR     = 

OBJECT_NAME    = UNKNOWN
OBJECT_ID      = 
CENTER_NAME    = EARTH
REF_FRAME      = TEME
TIME_SYSTEM    = UTC
MEAN_ELEMENT_THEORY = SGP/SGP4

EPOCH          = 2026-03-22T20:27:18.980928
MEAN_MOTION    = 14.47785336
ECCENTRICITY   = .0001988
INCLINATION    = 74.0507
RA_OF_ASC_NODE = 33.9880
ARG_OF_PERICENTER = 202.7624
MEAN_ANOMALY   = 157.3448

EPHEMERIS_TYPE = 0
CLASSIFICATION_TYPE = U
NORAD_CAT_ID   = 81499
ELEMENT_SET_NO = 999
REV_AT_EPOCH   = 49690
BSTAR          = .95699E-3
MEAN_MOTION_DOT = .3513E-4
MEAN_MOTION_DDOT = 0

CCSDS_OMM_VERS = 2.0
CREATION_DATE  = 
ORIGINATOR     = 

OBJECT_NAME    = UNKNOWN
OBJECT_ID      = 
CENTER_NAME    = EARTH
REF_FRAME      = TEME
TIME_SYSTEM    = UTC
MEAN_ELEMENT_THEORY = SGP/SGP4

EPOCH          = 2026-03-22T22:44:49.457760
MEAN_MOTION    = 14.13679229
ECCENTRICITY   = .023427
INCLINATION    = 98.1881
RA_OF_ASC_NODE = 160.9362
ARG_OF_PERICENTER = 218.2848
MEAN_ANOMALY   = 140.1493

EPHEMERIS_TYPE = 0
CLASSIFICATION_TYPE = U
NORAD_CAT_ID   = 81535
ELEMENT_SET_NO = 999
REV_AT_EPOCH   = 40155
BSTAR          = .50327E-3
MEAN_MOTION_DOT = .1194E-4
MEAN_MOTION_DDOT = 0

CCSDS_OMM_VERS = 2.0
CREATION_DATE  = 
ORIGINATOR     = 

OBJECT_NAME    = UNKNOWN
OBJECT_ID      = 
CENTER_NAME    = EARTH
REF_FRAME      = TEME
TIME_SYSTEM    = UTC
MEAN_ELEMENT_THEORY = SGP/SGP4

EPOCH          = 2026-03-22T20:37:36.703776
MEAN_MOTION    = 12.55998688
ECCENTRICITY   = .0023042
INCLINATION    = 101.9669
RA_OF_ASC_NODE = 309.1440
ARG_OF_PERICENTER = 79.2800
MEAN_ANOMALY   = 301.1766

EPHEMERIS_TYPE = 0
CLASSIFICATION_TYPE = U
NORAD_CAT_ID   = 81536
ELEMENT_SET_NO = 999
REV_AT_EPOCH   = 56438
BSTAR          = .37265E-2
MEAN_MOTION_DOT = .568E-5
MEAN_MOTION_DDOT = 0

CCSDS_OMM_VERS = 2.0
CREATION_DATE  = 
ORIGINATOR     = 

OBJECT_NAME    = UNKNOWN
OBJECT_ID      = 
CENTER_NAME    = EARTH
REF_FRAME      = TEME
TIME_SYSTEM    = UTC
MEAN_ELEMENT_THEORY = SGP/SGP4

EPOCH          = 2026-03-22T04:52:05.407104
MEAN_MOTION    = 14.07169215
ECCENTRICITY   = .0076997
INCLINATION    = 71.0372
RA_OF_ASC_NODE = 263.4610
ARG_OF_PERICENTER = 0.9507
MEAN_ANOMALY   = 359.1743

EPHEMERIS_TYPE = 0
CLASSIFICATION_TYPE = U
NORAD_CAT_ID   = 81537
ELEMENT_SET_NO = 999
REV_AT_EPOCH   = 63445
BSTAR          = .11438E-3
MEAN_MOTION_DOT = .15E-5
MEAN_MOTION_DDOT = 0

CCSDS_OMM_VERS = 2.0
CREATION_DATE  = 
ORIGINATOR     = 

OBJECT_NAME    = UNKNOWN
OBJECT_ID      = 
CENTER_NAME    = EARTH
REF_FRAME      = TEME
TIME_SYSTEM    = UTC
MEAN_ELEMENT_THEORY = SGP/SGP4

EPOCH          = 2026-03-20T05:33:44.534880
MEAN_MOTION    = 13.18343872
ECCENTRICITY   = .0256953
INCLINATION    = 99.0705
RA_OF_ASC_NODE = 357.5162
ARG_OF_PERICENTER = 143.8301
MEAN_ANOMALY   = 218.0502

EPHEMERIS_TYPE = 0
CLASSIFICATION_TYPE = U
NORAD_CAT_ID   = 81552
ELEMENT_SET_NO = 999
REV_AT_EPOCH   = 59209
BSTAR          = .14281E-2
MEAN_MOTION_DOT = .631E-5
MEAN_MOTION_DDOT = 0

CCSDS_OMM_VERS = 2.0
CREATION_DATE  = 
ORIGINATOR     = 

OBJECT_NAME    = UNKNOWN
OBJECT_ID      = 
CENTER_NAME    = EARTH
REF_FRAME      = TEME
TIME_SYSTEM    = UTC
MEAN_ELEMENT_THEORY = SGP/SGP4

EPOCH          = 2026-03-21T17:24:07.764768
MEAN_MOTION    = 13.31548769
ECCENTRICITY   = .0248477
INCLINATION    = 67.2942
RA_OF_ASC_NODE = 66.8229
ARG_OF_PERICENTER = 11.2794
MEAN_ANOMALY   = 171.4760

EPHEMERIS_TYPE = 0
CLASSIFICATION_TYPE = U
NORAD_CAT_ID   = 81599
ELEMENT_SET_NO = 999
REV_AT_EPOCH   = 59825
BSTAR          = .57618E-3
MEAN_MOTION_DOT = .265E-5
MEAN_MOTION_DDOT = 0

CCSDS_OMM_VERS = 2.0
CREATION_DATE  = 
ORIGINATOR     = 

OBJECT_NAME    = UNKNOWN
OBJECT_ID      = 
CENTER_NAME    = EARTH
REF_FRAME      = TEME
TIME_SYSTEM    = UTC
MEAN_ELEMENT_THEORY = SGP/SGP4

EPOCH          = 2026-03-20T21:07:22.910592
MEAN_MOTION    = 12.81398729
ECCENTRICITY   = .0144099
INCLINATION    = 56.4330
RA_OF_ASC_NODE = 295.5391
ARG_OF_PERICENTER = 273.9657
MEAN_ANOMALY   = 84.4808

EPHEMERIS_TYPE = 0
CLASSIFICATION_TYPE = U
NORAD_CAT_ID   = 81605
ELEMENT_SET_NO = 999
REV_AT_EPOCH   = 19878
BSTAR          = -.35638E-2
MEAN_MOTION_DOT = -.968E-5
MEAN_MOTION_DDOT = 0

